{
"type": "FeatureCollection",
"name": "cauces_inegi",
"crs": { "type": "name", "properties": { "name": "urn:ogc:def:crs:OGC:1.3:CRS84" } },
"xy_coordinate_resolution": 1e-06,
"features": [
{ "type": "Feature", "properties": { "ORDEN": 5, "CONDICION": "Intermitente", "ANIO_CAPTURA": 2001, "FUENTE": "INEGI — Red Hidrográfica escala 1:50 000", "FECHA": "edición 2.0, 2010" }, "geometry": { "type": "MultiLineString", "coordinates": [ [ [ -101.004652, 25.347359 ], [ -101.004873, 25.347911 ], [ -101.005634, 25.348307 ], [ -101.005957, 25.348351 ] ], [ [ -101.006171, 25.348417 ], [ -101.007259, 25.349242 ], [ -101.007399, 25.349258 ], [ -101.007524, 25.349626 ], [ -101.007736, 25.349849 ], [ -101.007915, 25.349846 ], [ -101.008179, 25.350168 ] ] ] } },
{ "type": "Feature", "properties": { "ORDEN": 5, "CONDICION": "Intermitente", "ANIO_CAPTURA": 2001, "FUENTE": "INEGI — Red Hidrográfica escala 1:50 000", "FECHA": "edición 2.0, 2010" }, "geometry": { "type": "LineString", "coordinates": [ [ -101.008179, 25.350168 ], [ -101.008016, 25.351145 ], [ -101.008954, 25.352008 ], [ -101.00961, 25.352053 ], [ -101.010283, 25.352486 ], [ -101.011058, 25.352467 ], [ -101.011104, 25.352845 ], [ -101.010961, 25.353804 ], [ -101.011657, 25.353876 ], [ -101.012277, 25.35412 ], [ -101.012616, 25.354756 ], [ -101.013129, 25.355137 ], [ -101.013799, 25.35604 ], [ -101.014509, 25.356301 ] ] } },
{ "type": "Feature", "properties": { "ORDEN": 5, "CONDICION": "Intermitente", "ANIO_CAPTURA": 2001, "FUENTE": "INEGI — Red Hidrográfica escala 1:50 000", "FECHA": "edición 2.0, 2010" }, "geometry": { "type": "LineString", "coordinates": [ [ -101.014509, 25.356301 ], [ -101.015661, 25.35689 ], [ -101.015964, 25.357202 ], [ -101.01799, 25.361336 ], [ -101.018413, 25.361664 ], [ -101.019124, 25.362024 ], [ -101.019389, 25.362391 ], [ -101.019645, 25.363443 ], [ -101.019512, 25.363851 ], [ -101.018927, 25.364473 ], [ -101.018933, 25.365448 ], [ -101.019498, 25.366596 ], [ -101.020209, 25.36748 ], [ -101.021906, 25.368594 ], [ -101.022036, 25.368592 ], [ -101.022111, 25.368943 ] ] } },
{ "type": "Feature", "properties": { "ORDEN": 5, "CONDICION": "Intermitente", "ANIO_CAPTURA": 2001, "FUENTE": "INEGI — Red Hidrográfica escala 1:50 000", "FECHA": "edición 2.0, 2010" }, "geometry": { "type": "LineString", "coordinates": [ [ -101.022111, 25.368943 ], [ -101.022849, 25.369691 ], [ -101.023512, 25.370115 ] ] } },
{ "type": "Feature", "properties": { "ORDEN": 5, "CONDICION": "Intermitente", "ANIO_CAPTURA": 2001, "FUENTE": "INEGI — Red Hidrográfica escala 1:50 000", "FECHA": "edición 2.0, 2010" }, "geometry": { "type": "LineString", "coordinates": [ [ -101.023512, 25.370115 ], [ -101.024048, 25.370704 ], [ -101.023844, 25.371004 ], [ -101.023793, 25.371502 ], [ -101.02395, 25.372005 ] ] } },
{ "type": "Feature", "properties": { "ORDEN": 5, "CONDICION": "Intermitente", "ANIO_CAPTURA": 2001, "FUENTE": "INEGI — Red Hidrográfica escala 1:50 000", "FECHA": "edición 2.0, 2010" }, "geometry": { "type": "LineString", "coordinates": [ [ -101.02395, 25.372005 ], [ -101.024317, 25.371928 ], [ -101.024878, 25.372191 ], [ -101.025405, 25.372824 ], [ -101.025716, 25.374228 ], [ -101.026063, 25.374738 ], [ -101.026818, 25.375351 ], [ -101.027569, 25.375674 ], [ -101.027731, 25.375862 ] ] } },
{ "type": "Feature", "properties": { "ORDEN": 5, "CONDICION": "Intermitente", "ANIO_CAPTURA": 2001, "FUENTE": "INEGI — Red Hidrográfica escala 1:50 000", "FECHA": "edición 2.0, 2010" }, "geometry": { "type": "LineString", "coordinates": [ [ -101.027731, 25.375862 ], [ -101.02833, 25.376639 ], [ -101.028228, 25.3771 ], [ -101.028263, 25.377362 ], [ -101.028594, 25.377574 ], [ -101.028891, 25.378084 ], [ -101.029222, 25.378269 ], [ -101.029346, 25.378574 ], [ -101.02912, 25.37874 ], [ -101.029162, 25.379444 ], [ -101.029335, 25.379703 ], [ -101.030047, 25.379504 ], [ -101.030358, 25.379671 ], [ -101.030473, 25.380012 ], [ -101.031279, 25.380082 ], [ -101.031255, 25.38039 ], [ -101.030801, 25.380595 ], [ -101.030854, 25.380801 ], [ -101.032039, 25.380948 ], [ -101.03235, 25.381133 ], [ -101.032324, 25.38135 ], [ -101.031229, 25.381843 ], [ -101.031202, 25.382006 ], [ -101.031688, 25.382541 ], [ -101.031753, 25.382865 ], [ -101.031519, 25.383121 ], [ -101.031565, 25.383491 ] ] } },
{ "type": "Feature", "properties": { "ORDEN": 5, "CONDICION": "Intermitente", "ANIO_CAPTURA": 2001, "FUENTE": "INEGI — Red Hidrográfica escala 1:50 000", "FECHA": "edición 2.0, 2010" }, "geometry": { "type": "LineString", "coordinates": [ [ -101.031565, 25.383491 ], [ -101.031698, 25.383705 ], [ -101.032325, 25.383787 ], [ -101.032487, 25.383947 ], [ -101.032451, 25.384192 ], [ -101.032575, 25.384488 ], [ -101.033249, 25.385589 ], [ -101.034091, 25.385983 ], [ -101.03408, 25.386552 ], [ -101.033761, 25.387035 ], [ -101.034034, 25.387311 ], [ -101.033899, 25.387575 ], [ -101.033976, 25.388052 ], [ -101.034101, 25.388384 ], [ -101.034201, 25.388437 ] ] } },
{ "type": "Feature", "properties": { "ORDEN": 5, "CONDICION": "Intermitente", "ANIO_CAPTURA": 2001, "FUENTE": "INEGI — Red Hidrográfica escala 1:50 000", "FECHA": "edición 2.0, 2010" }, "geometry": { "type": "LineString", "coordinates": [ [ -101.034201, 25.388437 ], [ -101.034729, 25.388466 ], [ -101.03497, 25.388616 ], [ -101.034803, 25.388763 ], [ -101.034708, 25.389035 ], [ -101.034713, 25.389324 ], [ -101.034537, 25.389489 ], [ -101.033924, 25.389642 ], [ -101.033836, 25.389742 ], [ -101.033932, 25.390174 ], [ -101.033845, 25.39032 ], [ -101.033566, 25.390269 ], [ -101.033253, 25.390572 ], [ -101.033042, 25.390972 ], [ -101.032854, 25.391651 ], [ -101.032734, 25.391608 ], [ -101.032557, 25.39171 ] ] } },
{ "type": "Feature", "properties": { "ORDEN": 5, "CONDICION": "Intermitente", "ANIO_CAPTURA": 2001, "FUENTE": "INEGI — Red Hidrográfica escala 1:50 000", "FECHA": "edición 2.0, 2010" }, "geometry": { "type": "LineString", "coordinates": [ [ -101.032557, 25.39171 ], [ -101.032631, 25.391961 ], [ -101.032458, 25.392316 ], [ -101.03247, 25.393011 ], [ -101.032929, 25.393167 ], [ -101.032699, 25.393657 ], [ -101.032189, 25.394035 ], [ -101.031985, 25.394371 ], [ -101.031972, 25.394733 ], [ -101.032185, 25.39501 ], [ -101.03295, 25.395577 ], [ -101.032524, 25.396287 ], [ -101.032865, 25.397022 ] ] } },
{ "type": "Feature", "properties": { "ORDEN": 5, "CONDICION": "Intermitente", "ANIO_CAPTURA": 2001, "FUENTE": "INEGI — Red Hidrográfica escala 1:50 000", "FECHA": "edición 2.0, 2010" }, "geometry": { "type": "LineString", "coordinates": [ [ -101.032865, 25.397022 ], [ -101.033339, 25.397458 ], [ -101.033451, 25.398197 ], [ -101.033014, 25.398826 ] ] } },
{ "type": "Feature", "properties": { "ORDEN": 5, "CONDICION": "Intermitente", "ANIO_CAPTURA": 2001, "FUENTE": "INEGI — Red Hidrográfica escala 1:50 000", "FECHA": "edición 2.0, 2010" }, "geometry": { "type": "LineString", "coordinates": [ [ -101.033014, 25.398826 ], [ -101.033668, 25.3999 ] ] } },
{ "type": "Feature", "properties": { "ORDEN": 5, "CONDICION": "Intermitente", "ANIO_CAPTURA": 2001, "FUENTE": "INEGI — Red Hidrográfica escala 1:50 000", "FECHA": "edición 2.0, 2010" }, "geometry": { "type": "LineString", "coordinates": [ [ -101.033668, 25.3999 ], [ -101.033579, 25.400497 ], [ -101.033434, 25.400743 ], [ -101.032306, 25.401029 ], [ -101.032434, 25.401569 ], [ -101.032264, 25.402113 ], [ -101.031968, 25.402234 ] ] } },
{ "type": "Feature", "properties": { "ORDEN": 5, "CONDICION": "Intermitente", "ANIO_CAPTURA": 2001, "FUENTE": "INEGI — Red Hidrográfica escala 1:50 000", "FECHA": "edición 2.0, 2010" }, "geometry": { "type": "LineString", "coordinates": [ [ -101.031968, 25.402234 ], [ -101.03179, 25.402309 ], [ -101.030549, 25.402371 ] ] } },
{ "type": "Feature", "properties": { "ORDEN": 5, "CONDICION": "Intermitente", "ANIO_CAPTURA": 1998, "FUENTE": "INEGI — Red Hidrográfica escala 1:50 000", "FECHA": "edición 2.0, 2010" }, "geometry": { "type": "LineString", "coordinates": [ [ -101.0, 25.481361 ], [ -100.999678, 25.481673 ], [ -100.998358, 25.481862 ], [ -100.997282, 25.48231 ], [ -100.996101, 25.482489 ], [ -100.996021, 25.482436 ] ] } },
{ "type": "Feature", "properties": { "ORDEN": 5, "CONDICION": "Intermitente", "ANIO_CAPTURA": 2001, "FUENTE": "INEGI — Red Hidrográfica escala 1:50 000", "FECHA": "edición 2.0, 2010" }, "geometry": { "type": "LineString", "coordinates": [ [ -101.002683, 25.484168 ], [ -101.002158, 25.484302 ], [ -101.000532, 25.485832 ], [ -101.0, 25.486065 ] ] } },
{ "type": "Feature", "properties": { "ORDEN": 5, "CONDICION": "Intermitente", "ANIO_CAPTURA": 1998, "FUENTE": "INEGI — Red Hidrográfica escala 1:50 000", "FECHA": "edición 2.0, 2010" }, "geometry": { "type": "LineString", "coordinates": [ [ -100.996021, 25.482436 ], [ -100.99578, 25.482926 ], [ -100.994674, 25.484025 ], [ -100.994188, 25.484699 ], [ -100.994063, 25.484945 ], [ -100.994076, 25.485757 ], [ -100.993924, 25.486138 ], [ -100.993441, 25.486452 ], [ -100.992728, 25.486606 ], [ -100.992372, 25.487351 ], [ -100.991452, 25.48823 ], [ -100.991067, 25.488443 ], [ -100.990492, 25.488559 ], [ -100.989683, 25.488904 ], [ -100.989567, 25.489104 ], [ -100.989659, 25.489906 ], [ -100.989572, 25.490016 ], [ -100.988377, 25.490565 ], [ -100.988094, 25.490875 ], [ -100.988054, 25.492095 ], [ -100.987886, 25.492738 ], [ -100.987653, 25.493084 ], [ -100.986883, 25.493474 ], [ -100.986545, 25.494074 ], [ -100.986506, 25.494724 ], [ -100.986568, 25.494877 ], [ -100.987377, 25.495687 ] ] } },
{ "type": "Feature", "properties": { "ORDEN": 5, "CONDICION": "Intermitente", "ANIO_CAPTURA": 1998, "FUENTE": "INEGI — Red Hidrográfica escala 1:50 000", "FECHA": "edición 2.0, 2010" }, "geometry": { "type": "LineString", "coordinates": [ [ -101.0, 25.486065 ], [ -100.998891, 25.486441 ], [ -100.998398, 25.487269 ], [ -100.997582, 25.487858 ], [ -100.997339, 25.488195 ], [ -100.99673, 25.489278 ], [ -100.996712, 25.489955 ], [ -100.996519, 25.490319 ], [ -100.996195, 25.490594 ], [ -100.993801, 25.491953 ], [ -100.993147, 25.492693 ], [ -100.99282, 25.49342 ] ] } },
{ "type": "Feature", "properties": { "ORDEN": 5, "CONDICION": "Intermitente", "ANIO_CAPTURA": 2008, "FUENTE": "INEGI — Red Hidrográfica escala 1:50 000", "FECHA": "edición 2.0, 2010" }, "geometry": { "type": "LineString", "coordinates": [ [ -100.939673, 25.465255 ], [ -100.940018, 25.465518 ], [ -100.940613, 25.465756 ], [ -100.940827, 25.465661 ], [ -100.941231, 25.465637 ], [ -100.941588, 25.465851 ], [ -100.942588, 25.466137 ], [ -100.942806, 25.466342 ] ] } },
{ "type": "Feature", "properties": { "ORDEN": 5, "CONDICION": "Intermitente", "ANIO_CAPTURA": 2008, "FUENTE": "INEGI — Red Hidrográfica escala 1:50 000", "FECHA": "edición 2.0, 2010" }, "geometry": { "type": "LineString", "coordinates": [ [ -100.942806, 25.466342 ], [ -100.942683, 25.466708 ], [ -100.942707, 25.467207 ], [ -100.942802, 25.467398 ], [ -100.943754, 25.46804 ], [ -100.943849, 25.468373 ], [ -100.944206, 25.468778 ], [ -100.944277, 25.469325 ], [ -100.944824, 25.469611 ], [ -100.945277, 25.469968 ], [ -100.945776, 25.470634 ], [ -100.9458, 25.47199 ], [ -100.945443, 25.473085 ], [ -100.945443, 25.474084 ], [ -100.946181, 25.474608 ], [ -100.94718, 25.475643 ], [ -100.94856, 25.477641 ], [ -100.948846, 25.478522 ], [ -100.948822, 25.479949 ], [ -100.949964, 25.481948 ], [ -100.949964, 25.482257 ], [ -100.950369, 25.48246 ], [ -100.95063, 25.482983 ], [ -100.95094, 25.483269 ], [ -100.951535, 25.483626 ], [ -100.952177, 25.483697 ], [ -100.953272, 25.484601 ], [ -100.953652, 25.48503 ], [ -100.954104, 25.485339 ], [ -100.955009, 25.485482 ], [ -100.955365, 25.4861 ], [ -100.955365, 25.486767 ], [ -100.955532, 25.487171 ], [ -100.955841, 25.487409 ], [ -100.956865, 25.489289 ], [ -100.957721, 25.490574 ], [ -100.957935, 25.491597 ], [ -100.958486, 25.49279 ] ] } },
{ "type": "Feature", "properties": { "ORDEN": 5, "CONDICION": "Intermitente", "ANIO_CAPTURA": 1998, "FUENTE": "INEGI — Red Hidrográfica escala 1:50 000", "FECHA": "edición 2.0, 2010" }, "geometry": { "type": "LineString", "coordinates": [ [ -100.93731, 25.464408 ], [ -100.937744, 25.464657 ], [ -100.939461, 25.465077 ], [ -100.939673, 25.465255 ] ] } },
{ "type": "Feature", "properties": { "ORDEN": 5, "CONDICION": "Intermitente", "ANIO_CAPTURA": 2008, "FUENTE": "INEGI — Red Hidrográfica escala 1:50 000", "FECHA": "edición 2.0, 2010" }, "geometry": { "type": "LineString", "coordinates": [ [ -100.918263, 25.457827 ], [ -100.918969, 25.458382 ], [ -100.919302, 25.458524 ], [ -100.91992, 25.458572 ], [ -100.920087, 25.458715 ], [ -100.920777, 25.458929 ], [ -100.921086, 25.459167 ], [ -100.921301, 25.459667 ], [ -100.921324, 25.46088 ], [ -100.921848, 25.461618 ], [ -100.922455, 25.462105 ], [ -100.922764, 25.462224 ], [ -100.923335, 25.462034 ], [ -100.923882, 25.462105 ], [ -100.924453, 25.462486 ], [ -100.924501, 25.462867 ], [ -100.924691, 25.463129 ], [ -100.925595, 25.463557 ], [ -100.926405, 25.463771 ], [ -100.928308, 25.465008 ], [ -100.928594, 25.46527 ], [ -100.930473, 25.466008 ], [ -100.931282, 25.465936 ], [ -100.931592, 25.466174 ], [ -100.931782, 25.466198 ], [ -100.933709, 25.466151 ], [ -100.933876, 25.466008 ], [ -100.934828, 25.465698 ], [ -100.935327, 25.465675 ], [ -100.935851, 25.465294 ], [ -100.936113, 25.464699 ], [ -100.936708, 25.464461 ], [ -100.93731, 25.464408 ] ] } },
{ "type": "Feature", "properties": { "ORDEN": 5, "CONDICION": "Intermitente", "ANIO_CAPTURA": 2008, "FUENTE": "INEGI — Red Hidrográfica escala 1:50 000", "FECHA": "edición 2.0, 2010" }, "geometry": { "type": "LineString", "coordinates": [ [ -100.910069, 25.455904 ], [ -100.91045, 25.455824 ], [ -100.911854, 25.455776 ], [ -100.91214, 25.455681 ], [ -100.913187, 25.45599 ], [ -100.914257, 25.456014 ], [ -100.914638, 25.456133 ], [ -100.916613, 25.457466 ], [ -100.917184, 25.457727 ], [ -100.917708, 25.457846 ], [ -100.918263, 25.457827 ] ] } },
{ "type": "Feature", "properties": { "ORDEN": 5, "CONDICION": "Intermitente", "ANIO_CAPTURA": 1998, "FUENTE": "INEGI — Red Hidrográfica escala 1:50 000", "FECHA": "edición 2.0, 2010" }, "geometry": { "type": "MultiLineString", "coordinates": [ [ [ -100.882002, 25.44717 ], [ -100.883231, 25.447421 ], [ -100.884616, 25.448215 ], [ -100.885894, 25.448569 ], [ -100.886198, 25.448723 ] ], [ [ -100.90625, 25.45487 ], [ -100.906954, 25.454995 ], [ -100.908354, 25.455446 ], [ -100.908802, 25.455477 ], [ -100.90965, 25.455691 ], [ -100.910069, 25.455904 ] ] ] } },
{ "type": "Feature", "properties": { "ORDEN": 5, "CONDICION": "Intermitente", "ANIO_CAPTURA": 1998, "FUENTE": "INEGI — Red Hidrográfica escala 1:50 000", "FECHA": "edición 2.0, 2010" }, "geometry": { "type": "LineString", "coordinates": [ [ -100.958486, 25.49279 ], [ -100.958253, 25.4944 ], [ -100.958274, 25.495077 ], [ -100.958462, 25.495589 ], [ -100.958797, 25.496036 ], [ -100.959352, 25.496489 ], [ -100.959578, 25.496982 ], [ -100.959646, 25.498065 ], [ -100.959487, 25.498726 ], [ -100.959494, 25.499132 ], [ -100.959787, 25.500004 ] ] } },
{ "type": "Feature", "properties": { "ORDEN": 5, "CONDICION": "Intermitente", "ANIO_CAPTURA": 2001, "FUENTE": "INEGI — Red Hidrográfica escala 1:50 000", "FECHA": "edición 2.0, 2010" }, "geometry": { "type": "LineString", "coordinates": [ [ -101.040507, 25.463698 ], [ -101.039687, 25.464016 ] ] } },
{ "type": "Feature", "properties": { "ORDEN": 5, "CONDICION": "Intermitente", "ANIO_CAPTURA": 2001, "FUENTE": "INEGI — Red Hidrográfica escala 1:50 000", "FECHA": "edición 2.0, 2010" }, "geometry": { "type": "LineString", "coordinates": [ [ -101.01042, 25.463201 ], [ -101.011007, 25.463274 ], [ -101.01159, 25.463636 ], [ -101.01229, 25.465649 ] ] } },
{ "type": "Feature", "properties": { "ORDEN": 5, "CONDICION": "Intermitente", "ANIO_CAPTURA": 2001, "FUENTE": "INEGI — Red Hidrográfica escala 1:50 000", "FECHA": "edición 2.0, 2010" }, "geometry": { "type": "LineString", "coordinates": [ [ -101.030549, 25.402371 ], [ -101.030089, 25.402775 ], [ -101.029747, 25.4037 ], [ -101.029809, 25.40388 ], [ -101.02881, 25.404742 ], [ -101.028002, 25.406194 ] ] } },
{ "type": "Feature", "properties": { "ORDEN": 5, "CONDICION": "Intermitente", "ANIO_CAPTURA": 2008, "FUENTE": "INEGI — Red Hidrográfica escala 1:50 000", "FECHA": "edición 2.0, 2010" }, "geometry": { "type": "LineString", "coordinates": [ [ -100.96484, 25.506138 ], [ -100.965172, 25.506572 ], [ -100.966365, 25.507107 ], [ -100.966591, 25.507374 ], [ -100.96657, 25.508876 ], [ -100.966735, 25.509123 ], [ -100.967846, 25.509246 ], [ -100.968339, 25.509534 ], [ -100.968607, 25.509925 ], [ -100.968792, 25.510398 ], [ -100.968463, 25.511858 ], [ -100.968771, 25.512414 ], [ -100.968751, 25.512949 ], [ -100.968607, 25.513216 ], [ -100.968648, 25.513566 ], [ -100.968854, 25.513751 ], [ -100.968761, 25.514407 ] ] } },
{ "type": "Feature", "properties": { "ORDEN": 5, "CONDICION": "Intermitente", "ANIO_CAPTURA": 1998, "FUENTE": "INEGI — Red Hidrográfica escala 1:50 000", "FECHA": "edición 2.0, 2010" }, "geometry": { "type": "LineString", "coordinates": [ [ -100.99282, 25.49342 ], [ -100.992665, 25.493657 ], [ -100.992121, 25.493854 ], [ -100.991823, 25.493876 ], [ -100.991534, 25.49379 ], [ -100.991137, 25.493867 ], [ -100.990301, 25.49442 ], [ -100.989688, 25.494049 ], [ -100.989091, 25.49403 ], [ -100.988854, 25.494178 ], [ -100.98825, 25.494944 ], [ -100.987445, 25.495551 ], [ -100.987377, 25.495687 ] ] } },
{ "type": "Feature", "properties": { "ORDEN": 5, "CONDICION": "Intermitente", "ANIO_CAPTURA": 2004, "FUENTE": "INEGI — Red Hidrográfica escala 1:50 000", "FECHA": "edición 2.0, 2010" }, "geometry": { "type": "LineString", "coordinates": [ [ -100.963518, 25.523456 ], [ -100.962937, 25.523694 ], [ -100.962639, 25.523689 ], [ -100.961901, 25.523581 ], [ -100.961288, 25.523201 ], [ -100.961149, 25.523248 ], [ -100.960876, 25.523568 ], [ -100.960208, 25.52411 ], [ -100.959927, 25.524583 ], [ -100.959729, 25.525235 ], [ -100.959738, 25.525777 ] ] } },
{ "type": "Feature", "properties": { "ORDEN": 5, "CONDICION": "Intermitente", "ANIO_CAPTURA": 2004, "FUENTE": "INEGI — Red Hidrográfica escala 1:50 000", "FECHA": "edición 2.0, 2010" }, "geometry": { "type": "LineString", "coordinates": [ [ -100.959787, 25.500004 ], [ -100.960138, 25.500839 ], [ -100.9605, 25.501068 ], [ -100.961321, 25.501382 ], [ -100.961402, 25.501499 ], [ -100.961267, 25.501726 ], [ -100.961301, 25.501988 ], [ -100.961456, 25.502365 ], [ -100.961727, 25.502532 ], [ -100.962115, 25.502509 ], [ -100.962759, 25.503575 ], [ -100.963092, 25.503841 ], [ -100.963753, 25.504148 ], [ -100.964288, 25.50462 ], [ -100.964656, 25.505201 ], [ -100.96484, 25.506138 ] ] } },
{ "type": "Feature", "properties": { "ORDEN": 5, "CONDICION": "Intermitente", "ANIO_CAPTURA": 2001, "FUENTE": "INEGI — Red Hidrográfica escala 1:50 000", "FECHA": "edición 2.0, 2010" }, "geometry": { "type": "LineString", "coordinates": [ [ -101.035374, 25.467317 ], [ -101.035292, 25.467561 ], [ -101.035326, 25.468373 ], [ -101.03501, 25.469696 ], [ -101.034747, 25.470024 ], [ -101.033932, 25.470072 ], [ -101.032717, 25.469953 ], [ -101.032075, 25.470233 ], [ -101.031399, 25.47082 ], [ -101.030618, 25.47111 ], [ -101.028745, 25.470866 ], [ -101.028441, 25.47115 ], [ -101.02853, 25.471708 ], [ -101.028214, 25.471839 ], [ -101.027931, 25.471545 ], [ -101.027614, 25.471017 ], [ -101.027281, 25.470759 ], [ -101.026343, 25.470529 ], [ -101.02586, 25.470779 ], [ -101.025806, 25.470916 ] ] } },
{ "type": "Feature", "properties": { "ORDEN": 5, "CONDICION": "Intermitente", "ANIO_CAPTURA": 2001, "FUENTE": "INEGI — Red Hidrográfica escala 1:50 000", "FECHA": "edición 2.0, 2010" }, "geometry": { "type": "LineString", "coordinates": [ [ -101.025806, 25.470916 ], [ -101.025863, 25.471005 ] ] } },
{ "type": "Feature", "properties": { "ORDEN": 5, "CONDICION": "Intermitente", "ANIO_CAPTURA": 2001, "FUENTE": "INEGI — Red Hidrográfica escala 1:50 000", "FECHA": "edición 2.0, 2010" }, "geometry": { "type": "LineString", "coordinates": [ [ -101.025863, 25.471005 ], [ -101.025897, 25.471203 ], [ -101.025733, 25.471548 ] ] } },
{ "type": "Feature", "properties": { "ORDEN": 5, "CONDICION": "Intermitente", "ANIO_CAPTURA": 2001, "FUENTE": "INEGI — Red Hidrográfica escala 1:50 000", "FECHA": "edición 2.0, 2010" }, "geometry": { "type": "LineString", "coordinates": [ [ -101.039687, 25.464016 ], [ -101.038831, 25.466303 ], [ -101.038348, 25.467158 ], [ -101.037359, 25.467487 ], [ -101.036502, 25.467373 ], [ -101.035603, 25.467142 ], [ -101.035374, 25.467317 ] ] } },
{ "type": "Feature", "properties": { "ORDEN": 5, "CONDICION": "Intermitente", "ANIO_CAPTURA": 2001, "FUENTE": "INEGI — Red Hidrográfica escala 1:50 000", "FECHA": "edición 2.0, 2010" }, "geometry": { "type": "MultiLineString", "coordinates": [ [ [ -101.025733, 25.471548 ], [ -101.025721, 25.471558 ] ], [ [ -101.024555, 25.471355 ], [ -101.024207, 25.471091 ] ] ] } },
{ "type": "Feature", "properties": { "ORDEN": 5, "CONDICION": "Intermitente", "ANIO_CAPTURA": 2001, "FUENTE": "INEGI — Red Hidrográfica escala 1:50 000", "FECHA": "edición 2.0, 2010" }, "geometry": { "type": "LineString", "coordinates": [ [ -101.020937, 25.412388 ], [ -101.020673, 25.412672 ], [ -101.020617, 25.413485 ], [ -101.020783, 25.413898 ], [ -101.021245, 25.414162 ], [ -101.021609, 25.414536 ], [ -101.021569, 25.415142 ], [ -101.021288, 25.415552 ], [ -101.020619, 25.415976 ], [ -101.020133, 25.416055 ], [ -101.019491, 25.415712 ], [ -101.019098, 25.415988 ], [ -101.019094, 25.416304 ], [ -101.018929, 25.416595 ], [ -101.018734, 25.417374 ], [ -101.017984, 25.417746 ], [ -101.017028, 25.419429 ], [ -101.016715, 25.4203 ], [ -101.017063, 25.4209 ], [ -101.016795, 25.421544 ], [ -101.016781, 25.421888 ], [ -101.016611, 25.422404 ], [ -101.016857, 25.422879 ], [ -101.016986, 25.424069 ], [ -101.016907, 25.424452 ] ] } },
{ "type": "Feature", "properties": { "ORDEN": 5, "CONDICION": "Intermitente", "ANIO_CAPTURA": 2001, "FUENTE": "INEGI — Red Hidrográfica escala 1:50 000", "FECHA": "edición 2.0, 2010" }, "geometry": { "type": "LineString", "coordinates": [ [ -101.023456, 25.411469 ], [ -101.022124, 25.412047 ], [ -101.021093, 25.412215 ], [ -101.020937, 25.412388 ] ] } },
{ "type": "Feature", "properties": { "ORDEN": 5, "CONDICION": "Intermitente", "ANIO_CAPTURA": 2001, "FUENTE": "INEGI — Red Hidrográfica escala 1:50 000", "FECHA": "edición 2.0, 2010" }, "geometry": { "type": "LineString", "coordinates": [ [ -101.044251, 25.455151 ], [ -101.043781, 25.4556 ], [ -101.043347, 25.456391 ], [ -101.042867, 25.45684 ], [ -101.042443, 25.457054 ], [ -101.042036, 25.457691 ], [ -101.041982, 25.45799 ], [ -101.042093, 25.458106 ], [ -101.042038, 25.458396 ], [ -101.041549, 25.459431 ], [ -101.04169, 25.461343 ], [ -101.041005, 25.463167 ], [ -101.040507, 25.463698 ] ] } },
{ "type": "Feature", "properties": { "ORDEN": 5, "CONDICION": "Intermitente", "ANIO_CAPTURA": 2001, "FUENTE": "INEGI — Red Hidrográfica escala 1:50 000", "FECHA": "edición 2.0, 2010" }, "geometry": { "type": "LineString", "coordinates": [ [ -101.007809, 25.452116 ], [ -101.008063, 25.452437 ], [ -101.008003, 25.453007 ], [ -101.007555, 25.454168 ], [ -101.007388, 25.454875 ], [ -101.008018, 25.455715 ], [ -101.008219, 25.456407 ], [ -101.007965, 25.457277 ], [ -101.008063, 25.45779 ], [ -101.007813, 25.458931 ], [ -101.007688, 25.462155 ], [ -101.008534, 25.462848 ], [ -101.009254, 25.463064 ], [ -101.01042, 25.463201 ] ] } },
{ "type": "Feature", "properties": { "ORDEN": 5, "CONDICION": "Intermitente", "ANIO_CAPTURA": 2001, "FUENTE": "INEGI — Red Hidrográfica escala 1:50 000", "FECHA": "edición 2.0, 2010" }, "geometry": { "type": "LineString", "coordinates": [ [ -101.008788, 25.43681 ], [ -101.008626, 25.437246 ], [ -101.008727, 25.437904 ], [ -101.008601, 25.438682 ], [ -101.007931, 25.439648 ], [ -101.006303, 25.44403 ], [ -101.006275, 25.445917 ], [ -101.006694, 25.446642 ], [ -101.006319, 25.44737 ], [ -101.007275, 25.448088 ], [ -101.008284, 25.449563 ], [ -101.008417, 25.450401 ], [ -101.008209, 25.451027 ], [ -101.007754, 25.451782 ], [ -101.007809, 25.452116 ] ] } },
{ "type": "Feature", "properties": { "ORDEN": 5, "CONDICION": "Intermitente", "ANIO_CAPTURA": 2008, "FUENTE": "INEGI — Red Hidrográfica escala 1:50 000", "FECHA": "edición 2.0, 2010" }, "geometry": { "type": "LineString", "coordinates": [ [ -101.012242, 25.43225 ], [ -101.011273, 25.43284 ], [ -101.010766, 25.43336 ], [ -101.010697, 25.433813 ], [ -101.010958, 25.434114 ], [ -101.010588, 25.434539 ], [ -101.010012, 25.434977 ], [ -101.009944, 25.435388 ], [ -101.009724, 25.435813 ], [ -101.008957, 25.436471 ], [ -101.008957, 25.436677 ], [ -101.008788, 25.43681 ] ] } },
{ "type": "Feature", "properties": { "ORDEN": 5, "CONDICION": "Intermitente", "ANIO_CAPTURA": 2001, "FUENTE": "INEGI — Red Hidrográfica escala 1:50 000", "FECHA": "edición 2.0, 2010" }, "geometry": { "type": "LineString", "coordinates": [ [ -101.015391, 25.427982 ], [ -101.014348, 25.428619 ], [ -101.013907, 25.429004 ], [ -101.012845, 25.43086 ], [ -101.012242, 25.43225 ] ] } },
{ "type": "Feature", "properties": { "ORDEN": 5, "CONDICION": "Intermitente", "ANIO_CAPTURA": 2001, "FUENTE": "INEGI — Red Hidrográfica escala 1:50 000", "FECHA": "edición 2.0, 2010" }, "geometry": { "type": "LineString", "coordinates": [ [ -101.016907, 25.424452 ], [ -101.016371, 25.426488 ], [ -101.015725, 25.427733 ], [ -101.015391, 25.427982 ] ] } },
{ "type": "Feature", "properties": { "ORDEN": 5, "CONDICION": "Intermitente", "ANIO_CAPTURA": 2001, "FUENTE": "INEGI — Red Hidrográfica escala 1:50 000", "FECHA": "edición 2.0, 2010" }, "geometry": { "type": "LineString", "coordinates": [ [ -101.028002, 25.406194 ], [ -101.027358, 25.407687 ], [ -101.026662, 25.408238 ], [ -101.02567, 25.408351 ], [ -101.02465, 25.407968 ], [ -101.024227, 25.408218 ], [ -101.024174, 25.408643 ], [ -101.025254, 25.409648 ], [ -101.025016, 25.410256 ], [ -101.024352, 25.410969 ], [ -101.023456, 25.411469 ] ] } },
{ "type": "Feature", "properties": { "ORDEN": 5, "CONDICION": "Intermitente", "ANIO_CAPTURA": 2001, "FUENTE": "INEGI — Red Hidrográfica escala 1:50 000", "FECHA": "edición 2.0, 2010" }, "geometry": { "type": "MultiLineString", "coordinates": [ [ [ -101.024207, 25.471091 ], [ -101.023888, 25.471212 ], [ -101.023477, 25.471526 ] ], [ [ -101.021956, 25.472326 ], [ -101.020963, 25.472297 ] ], [ [ -101.018755, 25.472329 ], [ -101.018521, 25.47241 ] ], [ [ -101.017575, 25.472656 ], [ -101.016008, 25.472774 ], [ -101.014736, 25.473379 ], [ -101.014115, 25.474335 ], [ -101.013804, 25.475341 ], [ -101.01352, 25.475625 ], [ -101.013153, 25.475657 ], [ -101.011623, 25.477556 ] ] ] } },
{ "type": "Feature", "properties": { "ORDEN": 5, "CONDICION": "Intermitente", "ANIO_CAPTURA": 2001, "FUENTE": "INEGI — Red Hidrográfica escala 1:50 000", "FECHA": "edición 2.0, 2010" }, "geometry": { "type": "LineString", "coordinates": [ [ -101.01229, 25.465649 ], [ -101.012658, 25.466862 ], [ -101.012415, 25.467218 ], [ -101.012174, 25.470651 ], [ -101.01318, 25.471919 ], [ -101.014129, 25.4728 ], [ -101.014337, 25.47333 ], [ -101.014104, 25.473658 ], [ -101.013187, 25.474131 ], [ -101.012569, 25.474663 ], [ -101.011838, 25.474935 ], [ -101.009082, 25.47546 ], [ -101.008679, 25.475773 ], [ -101.008578, 25.47683 ], [ -101.008257, 25.477286 ], [ -101.007843, 25.477508 ], [ -101.007098, 25.477527 ], [ -101.005437, 25.478119 ], [ -101.005443, 25.478489 ], [ -101.00527, 25.478843 ], [ -101.004776, 25.479076 ], [ -101.003913, 25.479196 ], [ -101.003618, 25.479407 ], [ -101.002775, 25.479536 ], [ -101.002663, 25.479402 ], [ -101.002822, 25.478777 ], [ -101.002681, 25.478635 ], [ -101.002374, 25.478756 ], [ -101.00208, 25.479031 ], [ -101.001018, 25.479723 ], [ -101.000388, 25.480724 ], [ -101.000308, 25.481321 ], [ -101.0, 25.481361 ] ] } },
{ "type": "Feature", "properties": { "ORDEN": 5, "CONDICION": "Intermitente", "ANIO_CAPTURA": 2001, "FUENTE": "INEGI — Red Hidrográfica escala 1:50 000", "FECHA": "edición 2.0, 2010" }, "geometry": { "type": "LineString", "coordinates": [ [ -101.00899, 25.479523 ], [ -101.008218, 25.480337 ], [ -101.00673, 25.480529 ], [ -101.005381, 25.481983 ], [ -101.003943, 25.482824 ], [ -101.003118, 25.483422 ], [ -101.002673, 25.483591 ], [ -101.002683, 25.484168 ] ] } },
{ "type": "Feature", "properties": { "ORDEN": 5, "CONDICION": "Intermitente", "ANIO_CAPTURA": 2001, "FUENTE": "INEGI — Red Hidrográfica escala 1:50 000", "FECHA": "edición 2.0, 2010" }, "geometry": { "type": "LineString", "coordinates": [ [ -101.011623, 25.477556 ], [ -101.010915, 25.478612 ], [ -101.01044, 25.478781 ], [ -101.010023, 25.478832 ], [ -101.00981, 25.479142 ], [ -101.00899, 25.479523 ] ] } },
{ "type": "Feature", "properties": { "ORDEN": 6, "CONDICION": "Intermitente", "ANIO_CAPTURA": 1998, "FUENTE": "INEGI — Red Hidrográfica escala 1:50 000", "FECHA": "edición 2.0, 2010" }, "geometry": { "type": "MultiLineString", "coordinates": [ [ [ -100.806486, 25.423468 ], [ -100.806508, 25.423646 ] ], [ [ -100.806549, 25.423742 ], [ -100.806657, 25.423955 ] ], [ [ -100.807218, 25.424819 ], [ -100.807243, 25.424956 ] ], [ [ -100.807255, 25.425047 ], [ -100.807275, 25.425273 ] ] ] } },
{ "type": "Feature", "properties": { "ORDEN": 6, "CONDICION": "Intermitente", "ANIO_CAPTURA": 1998, "FUENTE": "INEGI — Red Hidrográfica escala 1:50 000", "FECHA": "edición 2.0, 2010" }, "geometry": { "type": "MultiLineString", "coordinates": [ [ [ -100.807275, 25.425273 ], [ -100.807256, 25.425762 ] ], [ [ -100.807266, 25.426068 ], [ -100.807261, 25.426131 ] ], [ [ -100.807233, 25.427469 ], [ -100.807298, 25.427628 ] ], [ [ -100.807353, 25.427768 ], [ -100.807391, 25.427891 ] ], [ [ -100.807504, 25.42829 ], [ -100.807552, 25.428428 ] ], [ [ -100.807584, 25.428503 ], [ -100.807652, 25.428623 ] ], [ [ -100.807762, 25.428805 ], [ -100.807788, 25.428862 ] ], [ [ -100.807852, 25.429035 ], [ -100.807879, 25.429111 ] ], [ [ -100.80791, 25.429388 ], [ -100.807854, 25.429544 ] ] ] } },
{ "type": "Feature", "properties": { "ORDEN": 6, "CONDICION": "Intermitente", "ANIO_CAPTURA": 1998, "FUENTE": "INEGI — Red Hidrográfica escala 1:50 000", "FECHA": "edición 2.0, 2010" }, "geometry": { "type": "MultiLineString", "coordinates": [ [ [ -100.83849, 25.448368 ], [ -100.838928, 25.448775 ] ], [ [ -100.842979, 25.45254 ], [ -100.844602, 25.453896 ], [ -100.844866, 25.454227 ], [ -100.845012, 25.454617 ] ] ] } },
{ "type": "Feature", "properties": { "ORDEN": 6, "CONDICION": "Intermitente", "ANIO_CAPTURA": 1998, "FUENTE": "INEGI — Red Hidrográfica escala 1:50 000", "FECHA": "edición 2.0, 2010" }, "geometry": { "type": "MultiLineString", "coordinates": [ [ [ -100.806768, 25.431978 ], [ -100.806734, 25.432156 ] ], [ [ -100.806741, 25.432475 ], [ -100.806752, 25.432681 ] ], [ [ -100.806779, 25.432826 ], [ -100.80682, 25.432999 ] ], [ [ -100.806929, 25.433388 ], [ -100.806975, 25.433487 ] ], [ [ -100.807043, 25.433601 ], [ -100.807149, 25.433753 ] ], [ [ -100.807228, 25.43386 ], [ -100.807289, 25.433935 ] ], [ [ -100.807542, 25.434186 ], [ -100.807664, 25.434293 ] ], [ [ -100.808242, 25.434658 ], [ -100.808273, 25.434679 ] ], [ [ -100.808827, 25.43503 ], [ -100.809005, 25.435309 ], [ -100.809015, 25.435948 ] ] ] } },
{ "type": "Feature", "properties": { "ORDEN": 6, "CONDICION": "Intermitente", "ANIO_CAPTURA": 2004, "FUENTE": "INEGI — Red Hidrográfica escala 1:50 000", "FECHA": "edición 2.0, 2010" }, "geometry": { "type": "LineString", "coordinates": [ [ -100.95273, 25.550252 ], [ -100.952625, 25.550399 ], [ -100.952699, 25.550659 ], [ -100.952614, 25.550922 ], [ -100.952823, 25.55156 ], [ -100.95275, 25.553177 ], [ -100.952893, 25.55341 ], [ -100.952939, 25.553816 ], [ -100.953127, 25.554328 ], [ -100.953115, 25.554869 ], [ -100.952867, 25.555496 ], [ -100.952523, 25.555762 ], [ -100.952246, 25.555847 ], [ -100.951707, 25.555773 ], [ -100.951343, 25.556012 ], [ -100.951317, 25.556275 ], [ -100.951776, 25.556964 ], [ -100.951735, 25.557497 ], [ -100.951574, 25.558022 ], [ -100.951263, 25.558478 ], [ -100.951027, 25.558644 ], [ -100.950196, 25.558916 ], [ -100.949785, 25.558777 ], [ -100.949218, 25.558153 ], [ -100.948677, 25.557926 ], [ -100.948239, 25.557931 ], [ -100.948016, 25.558277 ], [ -100.948007, 25.558955 ], [ -100.947931, 25.559208 ], [ -100.947756, 25.559427 ], [ -100.947801, 25.560375 ], [ -100.947648, 25.561992 ], [ -100.947442, 25.562185 ], [ -100.947293, 25.562187 ], [ -100.946938, 25.561794 ], [ -100.946659, 25.561771 ], [ -100.946372, 25.561847 ], [ -100.946098, 25.562157 ], [ -100.946045, 25.562555 ], [ -100.945831, 25.562901 ], [ -100.945819, 25.563985 ], [ -100.945698, 25.56451 ], [ -100.945704, 25.565458 ], [ -100.94563, 25.565856 ], [ -100.945667, 25.566262 ], [ -100.946276, 25.567021 ], [ -100.946273, 25.567427 ], [ -100.946185, 25.567648 ] ] } },
{ "type": "Feature", "properties": { "ORDEN": 6, "CONDICION": "Intermitente", "ANIO_CAPTURA": 2004, "FUENTE": "INEGI — Red Hidrográfica escala 1:50 000", "FECHA": "edición 2.0, 2010" }, "geometry": { "type": "MultiLineString", "coordinates": [ [ [ -100.917644, 25.547692 ], [ -100.917669, 25.548007 ] ], [ [ -100.917805, 25.549234 ], [ -100.917991, 25.550107 ], [ -100.918422, 25.55116 ] ], [ [ -100.919324, 25.552674 ], [ -100.919424, 25.553021 ] ] ] } },
{ "type": "Feature", "properties": { "ORDEN": 6, "CONDICION": "Intermitente", "ANIO_CAPTURA": 2004, "FUENTE": "INEGI — Red Hidrográfica escala 1:50 000", "FECHA": "edición 2.0, 2010" }, "geometry": { "type": "LineString", "coordinates": [ [ -100.961003, 25.525774 ], [ -100.96088, 25.52568 ], [ -100.960441, 25.525614 ], [ -100.959994, 25.525638 ], [ -100.959738, 25.525777 ] ] } },
{ "type": "Feature", "properties": { "ORDEN": 6, "CONDICION": "Intermitente", "ANIO_CAPTURA": 2004, "FUENTE": "INEGI — Red Hidrográfica escala 1:50 000", "FECHA": "edición 2.0, 2010" }, "geometry": { "type": "MultiLineString", "coordinates": [ [ [ -100.959738, 25.525777 ], [ -100.959672, 25.526058 ], [ -100.959389, 25.526368 ], [ -100.959284, 25.526613 ], [ -100.958764, 25.52709 ], [ -100.958521, 25.527427 ], [ -100.957823, 25.52917 ], [ -100.957849, 25.529575 ], [ -100.958168, 25.530185 ], [ -100.958787, 25.530944 ], [ -100.959248, 25.531786 ], [ -100.959653, 25.532178 ], [ -100.959687, 25.532449 ], [ -100.959621, 25.532711 ], [ -100.958493, 25.533656 ], [ -100.958108, 25.53386 ], [ -100.958082, 25.534122 ], [ -100.958927, 25.534652 ], [ -100.959926, 25.534928 ], [ -100.960317, 25.535112 ], [ -100.960349, 25.535247 ], [ -100.960334, 25.535518 ], [ -100.960181, 25.535899 ], [ -100.959914, 25.536011 ], [ -100.959758, 25.536239 ], [ -100.959884, 25.536625 ], [ -100.959387, 25.537291 ], [ -100.959164, 25.538215 ], [ -100.959471, 25.539393 ], [ -100.95949, 25.539935 ], [ -100.960255, 25.541089 ], [ -100.960411, 25.541475 ], [ -100.960377, 25.541873 ], [ -100.960232, 25.542109 ], [ -100.959667, 25.542252 ], [ -100.959492, 25.542509 ] ], [ [ -100.959627, 25.543022 ], [ -100.959775, 25.543361 ] ] ] } },
{ "type": "Feature", "properties": { "ORDEN": 6, "CONDICION": "Intermitente", "ANIO_CAPTURA": 2004, "FUENTE": "INEGI — Red Hidrográfica escala 1:50 000", "FECHA": "edición 2.0, 2010" }, "geometry": { "type": "LineString", "coordinates": [ [ -100.917636, 25.547213 ], [ -100.917644, 25.547692 ] ] } },
{ "type": "Feature", "properties": { "ORDEN": 6, "CONDICION": "Intermitente", "ANIO_CAPTURA": 2004, "FUENTE": "INEGI — Red Hidrográfica escala 1:50 000", "FECHA": "edición 2.0, 2010" }, "geometry": { "type": "LineString", "coordinates": [ [ -100.959853, 25.545162 ], [ -100.959667, 25.545076 ] ] } },
{ "type": "Feature", "properties": { "ORDEN": 6, "CONDICION": "Intermitente", "ANIO_CAPTURA": 1998, "FUENTE": "INEGI — Red Hidrográfica escala 1:50 000", "FECHA": "edición 2.0, 2010" }, "geometry": { "type": "MultiLineString", "coordinates": [ [ [ -100.807527, 25.429976 ], [ -100.807347, 25.43035 ] ], [ [ -100.807281, 25.430516 ], [ -100.807031, 25.430928 ], [ -100.806952, 25.431262 ] ], [ [ -100.806907, 25.431395 ], [ -100.806857, 25.431667 ] ], [ [ -100.806838, 25.431845 ], [ -100.806768, 25.431978 ] ] ] } },
{ "type": "Feature", "properties": { "ORDEN": 6, "CONDICION": "Intermitente", "ANIO_CAPTURA": 2004, "FUENTE": "INEGI — Red Hidrográfica escala 1:50 000", "FECHA": "edición 2.0, 2010" }, "geometry": { "type": "LineString", "coordinates": [ [ -100.919422, 25.573081 ], [ -100.919634, 25.573267 ], [ -100.920044, 25.573443 ], [ -100.920192, 25.573955 ], [ -100.920374, 25.57416 ], [ -100.920906, 25.574406 ], [ -100.921663, 25.575055 ], [ -100.922415, 25.57667 ], [ -100.923239, 25.577797 ], [ -100.923802, 25.578773 ], [ -100.924194, 25.579101 ] ] } },
{ "type": "Feature", "properties": { "ORDEN": 6, "CONDICION": "Intermitente", "ANIO_CAPTURA": 1998, "FUENTE": "INEGI — Red Hidrográfica escala 1:50 000", "FECHA": "edición 2.0, 2010" }, "geometry": { "type": "LineString", "coordinates": [ [ -100.83486, 25.446113 ], [ -100.835477, 25.446852 ], [ -100.836021, 25.447305 ], [ -100.838081, 25.448092 ], [ -100.838483, 25.448318 ] ] } },
{ "type": "Feature", "properties": { "ORDEN": 6, "CONDICION": "Intermitente", "ANIO_CAPTURA": 1998, "FUENTE": "INEGI — Red Hidrográfica escala 1:50 000", "FECHA": "edición 2.0, 2010" }, "geometry": { "type": "LineString", "coordinates": [ [ -100.838483, 25.448318 ], [ -100.83849, 25.448368 ] ] } },
{ "type": "Feature", "properties": { "ORDEN": 6, "CONDICION": "Intermitente", "ANIO_CAPTURA": 2004, "FUENTE": "INEGI — Red Hidrográfica escala 1:50 000", "FECHA": "edición 2.0, 2010" }, "geometry": { "type": "LineString", "coordinates": [ [ -100.986802, 25.500001 ], [ -100.987021, 25.50063 ], [ -100.986885, 25.501426 ], [ -100.986309, 25.502093 ], [ -100.986097, 25.50252 ], [ -100.986092, 25.5028 ], [ -100.985902, 25.503317 ], [ -100.985773, 25.503391 ] ] } },
{ "type": "Feature", "properties": { "ORDEN": 6, "CONDICION": "Intermitente", "ANIO_CAPTURA": 1998, "FUENTE": "INEGI — Red Hidrográfica escala 1:50 000", "FECHA": "edición 2.0, 2010" }, "geometry": { "type": "LineString", "coordinates": [ [ -100.987377, 25.495687 ], [ -100.987611, 25.496009 ], [ -100.987578, 25.496407 ], [ -100.986786, 25.497212 ], [ -100.98668, 25.497457 ], [ -100.986693, 25.498811 ], [ -100.986802, 25.500001 ] ] } },
{ "type": "Feature", "properties": { "ORDEN": 6, "CONDICION": "Intermitente", "ANIO_CAPTURA": 2004, "FUENTE": "INEGI — Red Hidrográfica escala 1:50 000", "FECHA": "edición 2.0, 2010" }, "geometry": { "type": "MultiLineString", "coordinates": [ [ [ -100.959775, 25.543361 ], [ -100.960199, 25.543611 ] ], [ [ -100.960878, 25.544767 ], [ -100.960787, 25.544922 ] ] ] } },
{ "type": "Feature", "properties": { "ORDEN": 6, "CONDICION": "Intermitente", "ANIO_CAPTURA": 2004, "FUENTE": "INEGI — Red Hidrográfica escala 1:50 000", "FECHA": "edición 2.0, 2010" }, "geometry": { "type": "LineString", "coordinates": [ [ -100.985773, 25.503391 ], [ -100.985428, 25.503558 ], [ -100.985067, 25.503979 ], [ -100.984426, 25.504321 ], [ -100.983967, 25.504842 ], [ -100.982782, 25.505382 ], [ -100.982637, 25.505618 ], [ -100.982536, 25.506152 ], [ -100.982635, 25.506683 ], [ -100.982606, 25.507352 ], [ -100.981991, 25.509292 ], [ -100.981688, 25.509594 ], [ -100.980601, 25.510033 ], [ -100.979841, 25.510449 ], [ -100.978928, 25.511148 ], [ -100.978441, 25.511822 ], [ -100.97778, 25.513321 ], [ -100.977374, 25.514039 ], [ -100.976489, 25.515288 ], [ -100.976088, 25.515691 ], [ -100.975974, 25.516071 ], [ -100.975789, 25.516299 ], [ -100.975346, 25.516585 ], [ -100.974572, 25.516695 ], [ -100.973535, 25.516537 ], [ -100.973278, 25.516658 ], [ -100.972852, 25.517103 ] ] } }
]
}
